#dP2024  4 30  0  0  0.00000000      97 __u+U IGS20 FIT  IAC
## 2312 172800.00000000   900.00000000 60430 0.0000000000000
+  119   C06C07C08C09C10C11C12C13C14C16C19C20C21C22C23C24C25
+        C26C27C28C29C30C32C33C34C35C36C37C38C39C40C41C42C43
+        C44C45C46E02E03E04E05E07E08E09E10E11E12E13E14E15E18
+        E19E21E24E25E26E27E30E31E33E34E36G02G03G04G05G06G07
+        G08G09G10G11G12G13G14G15G16G17G18G19G20G21G22G23G24
+        G25G26G27G28G29G30G31G32J02J03J04R01R02R03R04R05R07
+        R08R09R11R12R13R14R15R16R17R18R19R20R21R22R24R25R26
++         7  7  7  7  7  7  6  7  7  7  5  5  6  5  6  5  6
++         5  5  6  6  5  6  6  6  5  6  6  6  6  6  6  6  6
++         5  6  6  4  4  4  4  4  4  4  4  4  4  4  4  4  4
++         4  4  4  4  4  4  4  4  4  4  4  3  3  3  3  3  3
++         3  3  3  4  3  3  3  3  3  3  3  4  3  3  3  3  3
++         3  4  3  3  3  3  3  3 11 11 11  8  7  6  6  6  7
++         7  6  6  6  7  6  6  6  7  6  7  8  7  7  6  8  8
%c M  cc GPS ccc cccc cccc cccc cccc ccccc ccccc ccccc ccccc
%c cc cc ccc ccc cccc cccc cccc cccc ccccc ccccc ccccc ccccc
%f  1.2500000  1.025000000  0.00000000000  0.000000000000000
%f  0.0000000  0.000000000  0.00000000000  0.000000000000000
%i    0    0    0    0      0      0      0      0         0
%i    0    0    0    0      0      0      0      0         0
/* INFORMATION & ANALYSIS CENTER (IAC)            FINAL DATA
/* S/V CLOCKS ARE ALIGNED TO GNSS TIME                      
/* G:C1WC2W R:C1PC2P E:C1XC5X C:C2IC6I J:C1CC2S             
/* PCV:IGS20_2290 OL/AL:FES2004  NONE     YN ORB:CoN CLK:CoN
*  2024 04 30 23  0  0.00000000
PC06 -16946.464563  31224.221332  22557.314894    386.824934
PC07  -5707.424311  38610.181056  16319.993515   -771.612889
PC08  -5116.521386  19768.426331 -36890.351189    -72.518403
PC09 -10914.449863  29956.534236  27745.730448   -836.787391
PC10    985.683719  41374.528621   9840.161101     65.910726
PC11  17764.011623 -21393.241291  -2246.280980    539.228110
PC12  19911.125621  -6564.572602 -18386.930815   -239.563367
PC13   2644.930666  23381.587871 -34779.223540    433.662492
PC14   8456.716202 -15852.857391  21349.415035    771.705218
PC16 -21418.305311  30866.508377  19088.104083   -492.003018
PC19  -1165.783160  22765.035029 -16093.760280   -913.271784
PC20 -13275.131039   8313.649755 -23083.579601   -415.780975
PC21  18475.341656  12697.078608  16659.152445   -964.846604
PC22  12305.847531  25062.002702    546.488309    -20.439481
PC23 -11319.273494 -15534.594380 -20227.322643   -777.057680
PC24  25400.456565  -5417.239937 -10194.585344    931.420458
PC25   9335.612888 -15052.622318 -21570.346699    388.254662
PC26  26275.642936   6357.919446   6837.729203   -284.797917
PC27 -16937.131101  -2691.973708  21988.689978    306.467875
PC28  -5320.857582 -17845.250521  20785.070376    234.650921
PC29 -11161.140654  24920.740953  -5759.079932    275.302104
PC30 -19971.255657  15126.654390  12256.297814    -66.897665
PC32 -18554.063578 -12605.867347 -16568.241147   -613.052347
PC33   1164.486296 -22685.849089  16197.888762   -968.100299
PC34  19763.075970 -16428.799624 -10919.453650    423.786849
PC35   5861.502495  17853.818497 -20636.239133    374.227458
PC36  -9851.905702  14798.480418  21533.701466     67.791882
PC37 -26059.105145  -7092.748483  -7063.601189   -967.495622
PC38 -13278.949145  18835.878522 -35277.326018    152.300298
PC39 -24017.178108  31609.703861  13956.504548     -8.181473
PC40  -9990.267920  36125.791555  19592.589397    -67.979606
PC41 -11850.743710 -25248.872867    391.631794   -936.933872
PC42  14255.685652  -6517.126507  23133.813908   -442.651138
PC43  11847.065472 -24813.409275   4818.403438     69.974061
PC44  17103.093708   2266.742937 -21958.659805    459.665618
PC45  11177.186223  15479.768689  20343.113829    -83.025998
PC46 -25075.149297   5739.266505  10859.704006   -144.400675
PE02  -3574.309174 -21030.717205 -20533.998464    123.742455
PE03   3304.565646 -29373.257025  -1395.811055   -110.758292
PE04   9918.013617  20991.303428  18380.375971   -386.174998
PE05  14308.973459 -20352.369283  16043.100534   4743.486413
PE07 -16963.152164  -1040.240708 -24223.610306   -117.545112
PE08  -9341.499566 -21624.979530 -17907.944521   -263.447629
PE09  16812.628448   1177.210567  24341.575597   -426.380043
PE10  22257.234750   4318.321818 -19041.466618   -621.259671
PE11  27405.365224  -3337.889724 -10718.486989   2950.622881
PE12  14433.439770  10673.260881 -23548.832816  -1018.017412
PE13 -27200.001576   2955.098292  11277.960993    -21.312009
PE14 -12324.471665  25935.998852   9156.377832     22.273357
PE15 -13837.667667 -10938.254799  23768.658321   -100.199752
PE18  16101.285718 -14339.043975 -15528.495606     59.122746
PE19  -4809.420403  29203.176414   -567.600014   -146.343647
PE21 -14677.677600   9408.183561  23916.363246   -592.069157
PE24  25121.467532   8448.441802 -13179.496081   -737.050843
PE25  15014.582375  -9072.094461 -23840.412122      3.961645
PE26 -24081.309776  15177.638362  -8107.268546    441.188861
PE27 -25090.836795  -8169.634820  13416.368681   -337.825312
PE30 -20422.952380 -20844.281897  -5004.636253   -253.317373
PE31  20579.107404  20712.251107   4865.496090    -22.256049
PE33  -7979.746055  18254.935913 -21892.905280     11.107852
PE34   7390.808060 -18213.426915  22122.930487   -108.669094
PE36  24453.153235 -14876.910491   7572.462510   -220.758940
PG02  -6390.657389  17649.624747 -18196.297498   -444.220503
PG03   6921.572355  19333.675162 -17066.261340    339.492575
PG04  -1009.057265  26139.733564   4187.662654    350.879620
PG05   7758.531996 -12737.910872  21798.314082   -171.061418
PG06  24851.190919  -4349.264781  -8422.285327    296.129486
PG07  14234.059326   9973.401939  20711.454042   -118.987743
PG08  -6283.643147  24840.895314   5969.663350    153.045145
PG09   8755.186046  20026.694699  14974.900643    179.609717
PG10 -23098.898159  -9362.284809  -9422.713911    -15.923009
PG11  23272.624022 -11987.308859   4350.924255   -650.622846
PG12  -3878.039280 -19611.040568 -17799.348114   -501.330900
PG13  13429.143307 -19357.454610  11826.806631    646.971226
PG14  22860.367147  12293.686978  -6094.742947    389.510379
PG15   3077.452838 -25596.667023   5439.883883    154.115071
PG16 -12757.080481   8578.293344  21366.361289   -303.399971
PG17  13441.686870   7534.781725 -21195.377188    709.422655
PG18 -14597.367048  -8944.970070  20369.427304   -603.404056
PG19  15644.828773  -2301.710053 -21464.427722    475.655820
PG20  17570.896329  -6240.627128  18920.720758    378.238636
PG21 -11059.294094  17967.367536 -15030.734751    124.277619
PG22  21575.158126   6914.866669 -13200.008029     -7.178186
PG23 -20931.773576 -16389.053788   2129.421085    214.062838
PG24   7407.651171 -18812.916741 -17430.272348   -465.147811
PG25 -13790.099634 -19945.145175 -11477.082907    494.860916
PG26 -21769.035250   -206.915995  15304.919526    159.406423
PG27 -12599.020790  17146.918998  15332.828057    -21.659810
PG28 -24081.564529   3040.496515 -10791.690137   -224.876593
PG29  -5074.100096 -22231.900878  13468.382110   -600.095068
PG30  22428.034243   1936.268880  14445.985473   -397.346467
PG31 -25014.647805   9537.810754   -833.516889   -227.939664
PG32 -14665.179148  -4254.250326 -21532.999931   -618.428618
PJ02 -25372.352382  23165.815974  29497.572923 999999.999999
PJ03 -35450.891767  22181.354143   -714.030396      0.071629
PJ04 -19904.921915  26718.693621 -20787.086726     50.379101
PR01  11548.712711  19751.150001  11304.376289     84.010132
PR02  11820.149776   4304.227324  22230.340389    -22.843979
PR03   6135.920931 -14075.195034  20438.607154     99.276259
PR04  -2638.250826 -24212.133988   7633.960188    234.371822
PR05  -9980.475789 -21554.498342  -9308.183053    130.800219
PR07  -5717.109703  14768.487121 -19934.646195     81.398007
PR08   3002.255807  24244.786366  -7221.916336    -75.266662
PR09 -24828.826251  -3451.318238   4497.221300    183.999910
PR11   -118.119168  11189.640327  22933.281709     26.258607
PR12  18801.892018  11316.287692  13017.678786     39.607684
PR13  24900.571808   5171.237057  -1974.605608    -46.925426
PR14  16337.155636  -5336.164911 -18846.146497     26.452884
PR15  -1479.882735 -11630.233756 -22634.427026     80.182675
PR16 -18695.649151 -11182.024275 -13230.713453     25.209894
PR17  18407.601255 -17603.655517   -990.059846     82.718989
PR18   9580.759418 -18534.926268  14721.909935    139.807179
PR19  -2565.328357 -11363.374235  22686.591146   -274.958797
PR20 -17566.552105   5269.333736  17708.988454   -112.095561
PR21 -18594.358268  17445.937319   1066.784737    -97.098042
PR22  -8976.826800  18170.371255 -15457.087393    114.387797
PR24  17810.165813  -6248.041511 -17142.049223    -53.983983
PR25 -19059.951519  16950.533981    741.216331    -32.715162
PR26   2500.958530  23952.676206  -8422.075852    -22.115956
EOF
